{
    "links": {
        "self": "http://www.neowsapp.com/rest/v1/neo/3553961?api_key=iIulBulltgU6a56xZRHN4H3l9WmuAYTsLGpBGhQ2"
    },
    "id": "3553961",
    "neo_reference_id": "3553961",
    "name": "(2010 XN69)",
    "designation": "2010 XN69",
    "nasa_jpl_url": "http://ssd.jpl.nasa.gov/sbdb.cgi?sstr=3553961",
    "absolute_magnitude_h": 26.2,
    "estimated_diameter": {
        "kilometers": {
            "estimated_diameter_min": 0.0152951935,
            "estimated_diameter_max": 0.0342010925
        },
        "meters": {
            "estimated_diameter_min": 15.2951935344,
            "estimated_diameter_max": 34.201092472
        },
        "miles": {
            "estimated_diameter_min": 0.0095039897,
            "estimated_diameter_max": 0.021251567
        },
        "feet": {
            "estimated_diameter_min": 50.1810827555,
            "estimated_diameter_max": 112.2083122258
        }
    },
    "is_potentially_hazardous_asteroid": false,
    "close_approach_data": [
        {
            "close_approach_date": "2010-12-25",
            "close_approach_date_full": "2010-Dec-25 22:32",
            "epoch_date_close_approach": 1293316320000,
            "relative_velocity": {
                "kilometers_per_second": "8.1987898074",
                "kilometers_per_hour": "29515.643306542",
                "miles_per_hour": "18339.8729201121"
            },
            "miss_distance": {
                "astronomical": "0.0111018165",
                "lunar": "4.3186066185",
                "kilometers": "1660808.101530855",
                "miles": "1031978.300821599"
            },
            "orbiting_body": "Earth"
        },
        {
            "close_approach_date": "2010-12-26",
            "close_approach_date_full": "2010-Dec-26 00:24",
            "epoch_date_close_approach": 1293323040000,
            "relative_velocity": {
                "kilometers_per_second": "7.2025845395",
                "kilometers_per_hour": "25929.3043420767",
                "miles_per_hour": "16111.4613563309"
            },
            "miss_distance": {
                "astronomical": "0.0087522803",
                "lunar": "3.4046370367",
                "kilometers": "1309322.490522961",
                "miles": "813575.2696244218"
            },
            "orbiting_body": "Moon"
        }
    ],
    "orbital_data": {
        "orbit_id": "5",
        "orbit_determination_date": "2017-04-06 08:55:10",
        "first_observation_date": "2010-12-15",
        "last_observation_date": "2010-12-16",
        "data_arc_in_days": 1,
        "observations_used": 15,
        "orbit_uncertainty": "9",
        "minimum_orbit_intersection": ".0010884",
        "jupiter_tisserand_invariant": "3.772",
        "epoch_osculation": "2455546.5",
        "eccentricity": ".4996734537148734",
        "semi_major_axis": "1.910779345984428",
        "inclination": "2.00258535329547",
        "ascending_node_longitude": "99.21744691660457",
        "orbital_period": "964.7487715805077",
        "perihelion_distance": ".9560136308893417",
        "perihelion_argument": "21.62866723605807",
        "aphelion_distance": "2.865545061079513",
        "perihelion_time": "2455577.472306637014",
        "mean_anomaly": "348.4425554944647",
        "mean_motion": ".3731541418914968",
        "equinox": "J2000",
        "orbit_class": {
            "orbit_class_type": "APO",
            "orbit_class_description": "Near-Earth asteroid orbits which cross the Earth’s orbit similar to that of 1862 Apollo",
            "orbit_class_range": "a (semi-major axis) > 1.0 AU; q (perihelion) < 1.017 AU"
        }
    },
    "is_sentry_object": false
}